#dP2021  7 29 18  0  0.00000000      96 __u+U ITR00 EXT  IAC
## 2168 410400.00000000   900.00000000 59424 0.7500000000000
+  117   C06C07C08C09C10C11C12C13C14C16C19C20C21C22C23C24C25
+        C26C27C28C29C30C32C33C34C35C36C37C38C39C40C41C42C43
+        C44C45C46E01E02E03E04E05E07E08E09E11E12E13E14E15E18
+        E19E21E24E25E26E27E30E31E33E36G01G02G03G04G05G06G07
+        G08G09G10G11G12G13G14G15G16G17G18G19G20G21G22G23G24
+        G25G26G27G28G29G30G31G32J01J02J03R01R02R03R04R05R07
+        R08R09R11R12R13R14R15R16R17R18R19R20R21R22R24  0  0
++         9 10 11  9  9 10  9 11  8  9  8  6  9 10  9  8  9
++         8 10  8  8  7  9  9  8  8  8  8  9 11  9  7 10  9
++         8  8  7  8  8  9  9  7  8  8  9  7  8  7  7  7  8
++         7  7  8  8  9  8  8  8  9  9  8  9  8  8  8  7  7
++         8  7  7  8  8  7  7  7  8  7  8  8  8  7  8  7  7
++         8  7  8  7  7  8  8  7 12 10  9  9 10  7  7  7  9
++         7  9  9  8  9  7  8  8  8  8  7  9  8 10  7  0  0
%c M  cc GPS ccc cccc cccc cccc cccc ccccc ccccc ccccc ccccc
%c cc cc ccc ccc cccc cccc cccc cccc ccccc ccccc ccccc ccccc
%f  0.0000000  0.000000000  0.00000000000  0.000000000000000
%f  0.0000000  0.000000000  0.00000000000  0.000000000000000
%i    0    0    0    0      0      0      0      0         0
%i    0    0    0    0      0      0      0      0         0
/* IAC                                ULTRA-RAPID PREDICTION
/* S/V CLOCKS ARE ALIGNED TO GNSS TIME                      
/* G:C1WC2W R:C1PC2P E:C1XC5X C:C2IC6I J:C1CC2S             
/* PCV:IGS14_2163 OL/AL:FES2004  NONE     YN ORB:CoN CLK:CoN
*  2021 07 30 11 15  0.00000000
PC06  -5720.485183  31956.320559  27658.340356    690.795741
PC07 -20181.816817  24114.293729 -28012.908438     65.687010
PC08 -20186.355969  36723.325661   2128.404623   -912.178238
PC09   5128.028339  38732.345894  16732.522304   -116.977454
PC10  -5801.366978  26515.060979 -32082.575223    -13.522354
PC11 -15899.774459 -20541.314266 -10205.645421    487.700812
PC12  -6137.514089 -26240.957043   7328.007511    796.324396
PC13 -10390.172409  37950.292292  14896.332448    355.359567
PC14 -21735.226011 -11395.703936 -13318.452111    762.011682
PC16  -3493.420079  32684.653643  26665.690494   -888.696494
PC19  26887.202734   5814.316187   4648.231687    928.115373
PC20  14638.592826  14475.245876  18836.851757   -831.510782
PC21   7025.869451 -14920.494336 -22492.814619   -937.669254
PC22  23931.230723  -6501.074308 -12766.290109   -948.995288
PC23 -20669.844003  15554.132961  10486.568056   -964.784340
PC24  -3542.888306 -19290.170766  19860.465876   -965.001590
PC25 -17689.387162  -1484.400677  21527.677266   -878.031546
PC26  10710.440790 -24709.329922   7373.509638    871.533749
PC27  -1194.669922  23481.663841 -15062.419390    572.713370
PC28 -13778.744818   8006.426175 -22909.011410    -44.520254
PC29  18707.535703  11407.705142  17269.084091    426.477997
PC30  12668.805235  24852.693738   1044.655656    475.778710
PC32  -6991.313812  14986.651940  22492.838190   -927.160637
PC33 -26924.316554  -5699.820723  -4684.078593   -949.325689
PC34 -13069.808093 -24577.010304  -1845.429649   -616.478545
PC35  13764.808206  -8087.117456  22877.546179   -163.242842
PC36  17458.288540   2259.837415 -21619.675826   -737.693785
PC37 -11955.566746  24350.262570  -6491.714693   -862.486041
PC38 -18563.227674  37604.337828   3480.778597    165.168349
PC39  -1018.091187  32880.412771  26477.601490     32.699257
PC40 -11021.164456  21320.956265 -34660.081803    185.468594
PC41 -24119.743434   6429.808212  12522.427431   -969.475267
PC42 -13905.527070 -14693.937039 -19188.643530   -925.515153
PC43 -18724.105790 -11974.127649 -16875.163250   -844.807684
PC44    620.078809 -23421.578636  15125.507616    315.456050
PC45  20563.551598 -15774.842380 -10355.294090    507.163986
PC46   4460.227688  18458.181930 -20424.573237    155.392032
PE01 -27172.146384  11465.633124   2549.641556  -1160.968005
PE02  27145.541695 -11567.614357  -2397.920970    236.451856
PE03  21827.393729  -2367.720773 -19844.662662   -458.230209
PE04  -5203.139483  16766.226069  23839.864968   -824.253258
PE05  25921.656168  13678.656619  -4118.583947   -261.187111
PE07 -14875.596734 -21554.627668 -13799.551938   -567.781240
PE08   4661.247224 -16868.493878 -23871.099086   5962.180451
PE09  15148.352177  21397.384423  13730.927768   5583.149773
PE11   5278.014461  27232.295731  10329.048585   5648.637589
PE12  -7458.879714  27155.696658  -9144.493714   5085.528558
PE13  -5073.573212 -27408.299070  -9964.231899    419.662157
PE14  -4738.154666  21144.623358 -21651.694666  -1518.034045
PE15   7319.694243 -27188.998798   9130.061856    800.715293
PE18  -9878.667968 -22990.570140   9690.439332  -1664.291340
PE19 -23055.335384    267.235749  18570.067281    339.659315
PE21 -22955.463901  -2574.295971  18517.017057   -679.131007
PE24   4278.967890  16295.923749 -24341.060553  -1035.586656
PE25  22821.834659   2731.841264 -18638.467744   -541.623659
PE26 -14807.490247 -10586.917161 -23347.623110   1519.934387
PE27  -5313.261447 -15811.037532  24462.189548    -86.874373
PE30  16361.348254 -19471.296755  15147.989826   2742.649102
PE31 -15331.017682  19645.747607 -15964.143090   -483.831760
PE33 -15372.928110  10958.757960 -22801.600138   -466.965223
PE36  14441.086721  11502.867452  23132.790160   -241.465777
PG01  13492.001613 -18558.829003  12804.180045    612.731597
PG02 -14118.421353  -5144.081885 -21248.327171   -623.058064
PG03  22091.745880 -12247.800185  -8113.780486   -236.937643
PG04  11570.750958  -9913.279680 -21750.256399   -203.254978
PG05 -25761.562196   5797.046881  -3773.151932    -49.515111
PG06  -8280.771748 -17283.368091 -18305.107996     47.864701
PG07   5786.177015 -25636.539220    897.094131    214.057067
PG08  19014.090382      6.572979  18657.942378    -30.709987
PG09    375.187981 -18289.051440 -19311.599704   -357.286302
PG10   6846.844042  13612.100150  21889.573259   -172.324513
PG11 -13793.390256  -6796.355879 -21673.113049     26.289026
PG12 -22925.076364  10656.361878  -8169.386315    -75.800867
PG13 -20194.500785  -9046.972378  14658.632285    164.517348
PG14  -6754.302733 -13990.092792  21543.273060     35.354408
PG15 -19138.494263   2456.013760  18018.224362   -131.935372
PG16  25224.981493   1389.303816  -9163.155310   -365.454115
PG17 -11112.254378 -22033.878137  10240.445681    481.650274
PG18  -4704.309798  25911.901299   3075.218581    337.104928
PG19 -16947.506597 -20538.708550    519.343988     33.031511
PG20 -21950.333594  -1710.230687 -14697.983930    519.917573
PG21  15455.667268 -10872.531940  19151.891215    134.322361
PG22  24584.815098  -9756.190705    300.459213   -550.784326
PG23  -6240.338732  16448.150559  19856.701929     77.608066
PG24 -14615.174605  14589.771372  16226.883783    192.373030
PG25 -13711.779572  15955.928210 -16310.907720    182.466177
PG26  18563.741805   7284.006190 -17729.390851    116.714040
PG27  21836.578397  10051.272284  11511.516703   -170.741576
PG28 -12519.639004 -11931.178805  20654.201296    528.865666
PG29  -3115.278445  16774.861808 -20385.910090   -388.346645
PG30  -2819.886243 -23454.097285  11970.181761   -456.628102
PG31   9900.389415  15370.189573 -19185.609942   -131.490669
PG32  14792.853447  20971.913544   7300.741626     11.081322
PJ01 -28438.096436  21687.049533  27404.814715   -427.339206
PJ02 -36249.416414  20852.935172  -1110.904784     -1.149297
PJ03 -19197.019159  25175.279972 -23202.339863     -0.435828
PR01   -142.566835 -11410.167693 -22813.239685     83.072385
PR02 -19523.386669 -11551.942787 -11563.038839    487.928515
PR03 -24453.982881  -4329.939084   5748.811118     40.430144
PR04 -15535.413892   4984.131704  19632.487013     98.080484
PR05   1975.154221  11638.902909  22625.027765     76.265326
PR07  24399.966675   4083.885918  -6271.263295    -41.839947
PR08  15544.456059  -5081.259975 -19528.515686    -60.131178
PR09   7527.930590   8405.539027 -22855.731234      5.531212
PR11  18533.130932 -17470.111548  -1231.792678     45.389209
PR12   8043.219413 -18288.973553  15899.264347    249.525848
PR13  -6762.336280  -8761.099983  22972.789173    -58.433020
PR14 -18291.654823   6555.836716  16555.641030     67.068062
PR15 -18635.863846  17409.679648    697.870160    102.400616
PR16  -6525.042611  18130.195038 -16659.726984    -18.706903
PR17 -11586.639449  -5267.996135 -22112.622524    445.486001
PR18  -6762.234224  12695.070505 -21070.806000     85.192501
PR19    467.851302  23589.481219  -9689.510958   -153.492476
PR20   9070.446763  21512.331652  10320.144841    -53.293395
PR21  11320.814497   3881.586285  22514.439828   -227.723189
PR22   6393.722190 -13479.499838  20642.227339   -125.273570
PR24  -9859.001798 -20876.551954 -10859.168022     52.517311
EOF
